NORAD_CAT_ID,OBJECT_NAME,OBJECT_TYPE,EPOCH,MEAN_MOTION,ECCENTRICITY,INCLINATION,RA_OF_ASC_NODE,ARG_OF_PERICENTER,MEAN_ANOMALY,BSTAR,MEAN_MOTION_DOT,MEAN_MOTION_DDOT,TLE_LINE0,TLE_LINE1,TLE_LINE2,SEMIMAJOR_AXIS,PERIOD,APOGEE,PERIGEE,DECAYED
51805.0,STARLINK-3605,PAYLOAD,2023-04-25 23:20:22,15.08785757,0.0001027,53.2181,357.0045,71.1061,289.0042,-0.00086744,-0.00014046,0.0,0 STARLINK-3605,1 51805U 22017AP  23115.97248449 -.00014046  00000-0 -86744-3 0  9999,2 51805  53.2181 357.0045 0001027  71.1061 289.0042 15.08785757 65921,6918.046,95.441,540.622,539.201,0.0
51805.0,STARLINK-3605,PAYLOAD,2023-04-26 16:49:36,15.08819132,0.0003427,53.2187,353.7361,106.6903,253.4465,-0.0006061,-9.918e-05,0.0,0 STARLINK-3605,1 51805U 22017AP  23116.70111715 -.00009918  00000-0 -60610-3 0  9992,2 51805  53.2187 353.7361 0003427 106.6903 253.4465 15.08819132 66038,6917.944,95.439,542.18,537.438,0.0
51805.0,STARLINK-3605,PAYLOAD,2023-04-27 18:15:46,15.08831204,8.07e-05,53.2176,348.9779,103.5191,256.5891,0.00010668,1.41e-05,0.0,0 STARLINK-3605,1 51805U 22017AP  23117.76095802  .00001410  00000-0  10668-3 0  9992,2 51805  53.2176 348.9779 0000807 103.5191 256.5891 15.08831204 66197,6917.907,95.438,540.331,539.214,0.0
51805.0,STARLINK-3605,PAYLOAD,2023-04-28 00:37:19,15.08849517,0.0001094,53.2174,347.7873,94.016,266.0958,0.00095932,0.00015017,0.0,0 STARLINK-3605,1 51805U 22017AP  23118.02592181  .00015017  00000-0  95932-3 0  9999,2 51805  53.2174 347.7873 0001094  94.0160 266.0958 15.08849517 66237,6917.851,95.437,540.473,538.959,0.0
51805.0,STARLINK-3605,PAYLOAD,2023-04-28 08:34:16,15.08829693,0.0001123,53.2174,346.3019,101.8556,258.2562,0.00019629,2.837e-05,0.0,0 STARLINK-3605,1 51805U 22017AP  23118.35713110  .00002837  00000-0  19629-3 0  9997,2 51805  53.2174 346.3019 0001123 101.8556 258.2562 15.08829693 66285,6917.912,95.438,540.554,539.0,0.0
51805.0,STARLINK-3605,PAYLOAD,2023-04-28 11:45:01,15.0883962,8.73e-05,53.2175,345.7059,101.148,258.961,-4.6132e-06,-3.61e-06,0.0,0 STARLINK-3605,1 51805U 22017AP  23118.48960372 -.00000361  00000-0 -46132-5 0  9998,2 51805  53.2175 345.7059 0000873 101.1480 258.9610 15.08839620 66308,6917.882,95.438,540.35,539.143,0.0
51805.0,STARLINK-3605,PAYLOAD,2023-04-28 19:41:56,15.08852935,8.89e-05,53.2168,344.2192,109.2694,250.8394,0.00022026,3.221e-05,0.0,0 STARLINK-3605,1 51805U 22017AP  23118.82079381  .00003221  00000-0  22026-3 0  9997,2 51805  53.2168 344.2192 0000889 109.2694 250.8394 15.08852935 66354,6917.841,95.437,540.321,539.091,0.0
51805.0,STARLINK-3605,PAYLOAD,2023-04-29 10:00:25,15.08843872,9.71e-05,53.2169,341.5429,115.4043,244.7049,0.00090637,0.00014168,0.0,0 STARLINK-3605,1 51805U 22017AP  23119.41695622  .00014168  00000-0  90637-3 0  9990,2 51805  53.2169 341.5429 0000971 115.4043 244.7049 15.08843872 66446,6917.869,95.437,540.405,539.062,0.0
51805.0,STARLINK-3605,PAYLOAD,2023-04-29 13:11:11,15.08846144,9.23e-05,53.2169,340.9484,102.6004,257.5091,0.00085349,0.00013324,0.0,0 STARLINK-3605,1 51805U 22017AP  23119.54943646  .00013324  00000-0  85349-3 0  9993,2 51805  53.2169 340.9484 0000923 102.6004 257.5091 15.08846144 66468,6917.862,95.437,540.365,539.088,0.0
51805.0,STARLINK-3605,PAYLOAD,2023-04-30 00:18:52,15.08856059,8.98e-05,53.2171,338.8667,99.54,260.5693,0.00065057,0.00010086,0.0,0 STARLINK-3605,1 51805U 22017AP  23120.01311242  .00010086  00000-0  65057-3 0  9994,2 51805  53.2171 338.8667 0000898  99.5400 260.5693 15.08856059 66531,6917.831,95.437,540.318,539.075,0.0
51805.0,STARLINK-3605,PAYLOAD,2023-04-30 17:48:07,15.08840371,8.14e-05,53.2172,335.5958,92.6772,267.4313,0.00026748,3.972e-05,0.0,0 STARLINK-3605,1 51805U 22017AP  23120.74175755  .00003972  00000-0  26748-3 0  9991,2 51805  53.2172 335.5958 0000814  92.6772 267.4313 15.08840371 66640,6917.879,95.438,540.307,539.181,0.0
51805.0,STARLINK-3605,PAYLOAD,2023-05-01 00:09:40,15.08844447,9.51e-05,53.2172,334.4064,115.7122,244.3968,0.00048349,7.416e-05,0.0,0 STARLINK-3605,1 51805U 22017AP  23121.00671710  .00007416  00000-0  48349-3 0  9991,2 51805  53.2172 334.4064 0000951 115.7122 244.3968 15.08844447 66686,6917.867,95.437,540.39,539.074,0.0
51805.0,STARLINK-3605,PAYLOAD,2023-05-01 17:38:55,15.08840399,9.61e-05,53.2171,331.1358,95.2547,264.8555,0.00027903,4.156e-05,0.0,0 STARLINK-3605,1 51805U 22017AP  23121.73536046  .00004156  00000-0  27903-3 0  9994,2 51805  53.2171 331.1358 0000961  95.2547 264.8555 15.08840399 66792,6917.879,95.438,540.409,539.079,0.0
51805.0,STARLINK-3605,PAYLOAD,2023-05-01 20:49:41,15.08842983,0.0001023,53.2173,330.5414,100.3383,259.7725,0.00032867,4.947e-05,0.0,0 STARLINK-3605,1 51805U 22017AP  23121.86783975  .00004947  00000-0  32867-3 0  9996,2 51805  53.2173 330.5414 0001023 100.3383 259.7725 15.08842983 66812,6917.871,95.437,540.444,539.029,0.0
51805.0,STARLINK-3605,PAYLOAD,2023-05-02 00:00:27,15.0884952,9.64e-05,53.2172,329.9462,96.9699,263.1403,0.00040915,6.231e-05,0.0,0 STARLINK-3605,1 51805U 22017AP  23122.00031780  .00006231  00000-0  40915-3 0  9994,2 51805  53.2172 329.9462 0000964  96.9699 263.1403 15.08849520 66837,6917.851,95.437,540.383,539.049,0.0
51805.0,STARLINK-3605,PAYLOAD,2023-05-02 19:05:06,15.0882433,0.0001056,53.2174,326.3782,101.5505,258.5606,-5.8835e-05,-1.224e-05,0.0,0 STARLINK-3605,1 51805U 22017AP  23122.79521186 -.00001224  00000-0 -58835-4 0  9994,2 51805  53.2174 326.3782 0001056 101.5505 258.5606 15.08824330 66955,6917.928,95.439,540.524,539.063,0.0
51805.0,STARLINK-3605,PAYLOAD,2023-05-03 06:12:48,15.08825574,0.0001047,53.2169,324.2966,97.7049,262.4062,4.9446e-06,-2.09e-06,0.0,0 STARLINK-3605,1 51805U 22017AP  23123.25889722 -.00000209  00000-0  49446-5 0  9999,2 51805  53.2169 324.2966 0001047  97.7049 262.4062 15.08825574 67029,6917.924,95.438,540.514,539.065,0.0
51805.0,STARLINK-3605,PAYLOAD,2023-05-03 20:31:17,15.08839347,0.0001099,53.2164,321.6206,94.4219,265.6899,0.00044429,6.79e-05,0.0,0 STARLINK-3605,1 51805U 22017AP  23123.85505948  .00006790  00000-0  44429-3 0  9994,2 51805  53.2164 321.6206 0001099  94.4219 265.6899 15.08839347 67118,6917.882,95.438,540.508,538.987,0.0
51805.0,STARLINK-3605,PAYLOAD,2023-05-03 22:06:40,15.08842618,0.0001191,53.2165,321.3234,99.4939,260.6188,0.00069945,0.00010862,0.0,0 STARLINK-3605,1 51805U 22017AP  23123.92130008  .00010862  00000-0  69945-3 0  9998,2 51805  53.2165 321.3234 0001191  99.4939 260.6188 15.08842618 67126,6917.872,95.437,540.561,538.913,0.0
51805.0,STARLINK-3605,PAYLOAD,2023-05-04 06:03:35,15.0885268,0.0001193,53.2163,319.8364,103.1069,257.0056,0.00076038,0.00011838,0.0,0 STARLINK-3605,1 51805U 22017AP  23124.25249714  .00011838  00000-0  76038-3 0  9995,2 51805  53.2163 319.8364 0001193 103.1069 257.0056 15.08852680 67178,6917.842,95.437,540.532,538.881,0.0
51805.0,STARLINK-3605,PAYLOAD,2023-05-04 18:46:39,15.08877877,0.0001214,53.216,317.4571,101.1216,258.9913,0.0010852,0.00017043,0.0,0 STARLINK-3605,1 51805U 22017AP  23124.78240656  .00017043  00000-0  10852-2 0  9994,2 51805  53.2160 317.4571 0001214 101.1216 258.9913 15.08877877 67251,6917.765,95.435,540.469,538.79,0.0
51805.0,STARLINK-3605,PAYLOAD,2023-05-04 20:22:02,15.08881288,0.0001206,53.2161,317.1598,100.9474,259.1654,0.0011371,0.00017876,0.0,0 STARLINK-3605,1 51805U 22017AP  23124.84864460  .00017876  00000-0  11371-2 0  9997,2 51805  53.2161 317.1598 0001206 100.9474 259.1654 15.08881288 67269,6917.754,95.435,540.453,538.785,0.0
51805.0,STARLINK-3605,PAYLOAD,2023-05-05 12:15:54,15.08848915,0.0001128,53.2158,314.1856,90.9884,269.1238,-0.00019314,-3.361e-05,0.0,0 STARLINK-3605,1 51805U 22017AP  23125.51104210 -.00003361  00000-0 -19314-3 0  9994,2 51805  53.2158 314.1856 0001128  90.9884 269.1238 15.08848915 67365,6917.853,95.437,540.498,538.938,0.0
51805.0,STARLINK-3605,PAYLOAD,2023-05-05 20:12:49,15.08855045,0.0001222,53.2159,312.6991,85.5567,274.5565,0.00048665,7.469e-05,0.0,0 STARLINK-3605,1 51805U 22017AP  23125.84224114  .00007469  00000-0  48665-3 0  9998,2 51805  53.2159 312.6991 0001222  85.5567 274.5565 15.08855045 67413,6917.834,95.437,540.545,538.854,0.0
51805.0,STARLINK-3605,PAYLOAD,2023-05-06 00:58:58,15.08859829,0.0001278,53.2154,311.8061,87.5037,272.6102,0.00088994,0.00013911,0.0,0 STARLINK-3605,1 51805U 22017AP  23126.04096001  .00013911  00000-0  88994-3 0  9991,2 51805  53.2154 311.8061 0001278  87.5037 272.6102 15.08859829 67445,6917.82,95.436,540.569,538.801,0.0
51805.0,STARLINK-3605,PAYLOAD,2023-05-06 12:06:41,15.08850893,0.0001009,53.2158,309.7239,89.2939,270.8169,0.00098617,0.00015446,0.0,0 STARLINK-3605,1 51805U 22017AP  23126.50464351  .00015446  00000-0  98617-3 0  9997,2 51805  53.2158 309.7239 0001009  89.2939 270.8169 15.08850893 67517,6917.847,95.437,540.41,539.014,0.0
51805.0,STARLINK-3605,PAYLOAD,2023-05-06 18:28:13,15.08860311,0.0001246,53.2155,308.5346,90.5914,269.5221,0.0019059,0.00030192,0.0,0 STARLINK-3605,1 51805U 22017AP  23126.76960210  .00030192  00000-0  19059-2 0  9997,2 51805  53.2155 308.5346 0001246  90.5914 269.5221 15.08860311 67555,6917.818,95.436,540.545,538.821,0.0
51805.0,STARLINK-3605,PAYLOAD,2023-05-07 05:35:55,15.08859163,8.52e-05,53.2166,306.4537,83.1064,277.0025,0.0010144,0.00015902,0.0,0 STARLINK-3605,1 51805U 22017AP  23127.23327968  .00015902  00000-0  10144-2 0  9995,2 51805  53.2166 306.4537 0000852  83.1064 277.0025 15.08859163 67629,6917.822,95.436,540.276,539.097,0.0
51805.0,STARLINK-3605,PAYLOAD,2023-05-07 18:19:00,15.08843405,0.0001189,53.216,304.0744,95.9893,264.1234,0.0003518,5.316e-05,0.0,0 STARLINK-3605,1 51805U 22017AP  23127.76320370  .00005316  00000-0  35180-3 0  9999,2 51805  53.2160 304.0744 0001189  95.9893 264.1234 15.08843405 67702,6917.87,95.437,540.558,538.912,0.0
51805.0,STARLINK-3605,PAYLOAD,2023-05-08 21:20:33,15.08859468,0.0001051,53.2167,299.0191,97.6919,262.4192,0.00094759,0.00014833,0.0,0 STARLINK-3605,1 51805U 22017AP  23128.88928229  .00014833  00000-0  94759-3 0  9991,2 51805  53.2167 299.0191 0001051  97.6919 262.4192 15.08859468 67872,6917.821,95.436,540.413,538.959,0.0
